[{"OBJECT_NAME":"ONEWEB-0427","OBJECT_ID":"2021-132AG","EPOCH":"2025-07-30T13:25:50.392992","MEAN_MOTION":13.18686325,"ECCENTRICITY":0.0001631,"INCLINATION":87.9122,"RA_OF_ASC_NODE":39.3219,"ARG_OF_PERICENTER":93.7674,"MEAN_ANOMALY":266.3644,"EPHEMERIS_TYPE":0,"CLASSIFICATION_TYPE":"U","NORAD_CAT_ID":50499,"ELEMENT_SET_NO":999,"REV_AT_EPOCH":17922,"BSTAR":7.9417e-5,"MEAN_MOTION_DOT":4.4e-7,"MEAN_MOTION_DDOT":0},{"OBJECT_NAME":"ONEWEB-0429","OBJECT_ID":"2021-132AH","EPOCH":"2025-07-30T13:06:50.771808","MEAN_MOTION":13.18685817,"ECCENTRICITY":0.0001902,"INCLINATION":87.9125,"RA_OF_ASC_NODE":39.3532,"ARG_OF_PERICENTER":85.0992,"MEAN_ANOMALY":275.0358,"EPHEMERIS_TYPE":0,"CLASSIFICATION_TYPE":"U","NORAD_CAT_ID":50500,"ELEMENT_SET_NO":999,"REV_AT_EPOCH":17919,"BSTAR":0.00012346,"MEAN_MOTION_DOT":6.2e-7,"MEAN_MOTION_DDOT":0},{"OBJECT_NAME":"ONEWEB-0430","OBJECT_ID":"2021-132AJ","EPOCH":"2025-07-30T12:50:12.422400","MEAN_MOTION":13.18688318,"ECCENTRICITY":0.0001699,"INCLINATION":87.9126,"RA_OF_ASC_NODE":39.3496,"ARG_OF_PERICENTER":80.0348,"MEAN_ANOMALY":280.0976,"EPHEMERIS_TYPE":0,"CLASSIFICATION_TYPE":"U","NORAD_CAT_ID":50501,"ELEMENT_SET_NO":999,"REV_AT_EPOCH":17923,"BSTAR":1.3607e-5,"MEAN_MOTION_DOT":1.8e-7,"MEAN_MOTION_DDOT":0},{"OBJECT_NAME":"ONEWEB-0432","OBJECT_ID":"2021-132AK","EPOCH":"2025-07-30T13:35:41.006112","MEAN_MOTION":13.18687716,"ECCENTRICITY":8.9e-5,"INCLINATION":87.9117,"RA_OF_ASC_NODE":39.3253,"ARG_OF_PERICENTER":95.5331,"MEAN_ANOMALY":264.5903,"EPHEMERIS_TYPE":0,"CLASSIFICATION_TYPE":"U","NORAD_CAT_ID":50502,"ELEMENT_SET_NO":999,"REV_AT_EPOCH":17919,"BSTAR":0.00010036,"MEAN_MOTION_DOT":5.2e-7,"MEAN_MOTION_DDOT":0},{"OBJECT_NAME":"ONEWEB-0440","OBJECT_ID":"2021-132AL","EPOCH":"2025-07-30T13:18:44.006400","MEAN_MOTION":13.18686331,"ECCENTRICITY":0.0002229,"INCLINATION":87.9128,"RA_OF_ASC_NODE":39.3347,"ARG_OF_PERICENTER":90.8809,"MEAN_ANOMALY":269.2578,"EPHEMERIS_TYPE":0,"CLASSIFICATION_TYPE":"U","NORAD_CAT_ID":50503,"ELEMENT_SET_NO":999,"REV_AT_EPOCH":17918,"BSTAR":0.00019482,"MEAN_MOTION_DOT":9.0e-7,"MEAN_MOTION_DDOT":0},{"OBJECT_NAME":"ONEWEB-0450","OBJECT_ID":"2021-132AM","EPOCH":"2025-07-30T13:09:26.034336","MEAN_MOTION":13.18685818,"ECCENTRICITY":0.0001949,"INCLINATION":87.9123,"RA_OF_ASC_NODE":39.3622,"ARG_OF_PERICENTER":80.771,"MEAN_ANOMALY":279.3642,"EPHEMERIS_TYPE":0,"CLASSIFICATION_TYPE":"U","NORAD_CAT_ID":50504,"ELEMENT_SET_NO":999,"REV_AT_EPOCH":17921,"BSTAR":0.00021075,"MEAN_MOTION_DOT":9.6e-7,"MEAN_MOTION_DDOT":0},{"OBJECT_NAME":"ONEWEB-0410","OBJECT_ID":"2022-012A","EPOCH":"2025-07-30T15:03:44.507808","MEAN_MOTION":13.17651522,"ECCENTRICITY":0.0001548,"INCLINATION":87.9046,"RA_OF_ASC_NODE":69.8404,"ARG_OF_PERICENTER":135.8607,"MEAN_ANOMALY":224.2648,"EPHEMERIS_TYPE":0,"CLASSIFICATION_TYPE":"U","NORAD_CAT_ID":51622,"ELEMENT_SET_NO":999,"REV_AT_EPOCH":17135,"BSTAR":-6.0907e-5,"MEAN_MOTION_DOT":-1.1e-7,"MEAN_MOTION_DDOT":0},{"OBJECT_NAME":"ONEWEB-0411","OBJECT_ID":"2022-012B","EPOCH":"2025-07-30T14:58:58.249920","MEAN_MOTION":13.10369686,"ECCENTRICITY":0.0001728,"INCLINATION":87.8799,"RA_OF_ASC_NODE":100.4045,"ARG_OF_PERICENTER":58.02,"MEAN_ANOMALY":302.1095,"EPHEMERIS_TYPE":0,"CLASSIFICATION_TYPE":"U","NORAD_CAT_ID":51623,"ELEMENT_SET_NO":999,"REV_AT_EPOCH":16717,"BSTAR":-9.9946e-5,"MEAN_MOTION_DOT":-2.2e-7,"MEAN_MOTION_DDOT":0},{"OBJECT_NAME":"ONEWEB-0415","OBJECT_ID":"2022-012C","EPOCH":"2025-07-30T18:34:06.244032","MEAN_MOTION":13.10369494,"ECCENTRICITY":0.0001708,"INCLINATION":87.8797,"RA_OF_ASC_NODE":100.378,"ARG_OF_PERICENTER":67.2255,"MEAN_ANOMALY":292.9053,"EPHEMERIS_TYPE":0,"CLASSIFICATION_TYPE":"U","NORAD_CAT_ID":51624,"ELEMENT_SET_NO":999,"REV_AT_EPOCH":16847,"BSTAR":0.00051895,"MEAN_MOTION_DOT":1.94e-6,"MEAN_MOTION_DDOT":0},{"OBJECT_NAME":"ONEWEB-0416","OBJECT_ID":"2022-012D","EPOCH":"2025-07-30T09:41:02.716224","MEAN_MOTION":13.10370382,"ECCENTRICITY":0.0001753,"INCLINATION":87.8802,"RA_OF_ASC_NODE":100.4703,"ARG_OF_PERICENTER":77.3248,"MEAN_ANOMALY":282.8075,"EPHEMERIS_TYPE":0,"CLASSIFICATION_TYPE":"U","NORAD_CAT_ID":51625,"ELEMENT_SET_NO":999,"REV_AT_EPOCH":16718,"BSTAR":-0.0013106,"MEAN_MOTION_DOT":-4.45e-6,"MEAN_MOTION_DDOT":0},{"OBJECT_NAME":"ONEWEB-0422","OBJECT_ID":"2022-012E","EPOCH":"2025-07-30T13:28:57.817056","MEAN_MOTION":13.17650544,"ECCENTRICITY":0.0002468,"INCLINATION":87.9043,"RA_OF_ASC_NODE":69.8601,"ARG_OF_PERICENTER":76.5463,"MEAN_ANOMALY":283.5943,"EPHEMERIS_TYPE":0,"CLASSIFICATION_TYPE":"U","NORAD_CAT_ID":51626,"ELEMENT_SET_NO":999,"REV_AT_EPOCH":17145,"BSTAR":8.7488e-5,"MEAN_MOTION_DOT":4.7e-7,"MEAN_MOTION_DDOT":0},{"OBJECT_NAME":"ONEWEB-0423","OBJECT_ID":"2022-012F","EPOCH":"2025-07-30T15:08:35.586816","MEAN_MOTION":13.17650491,"ECCENTRICITY":0.0001871,"INCLINATION":87.9042,"RA_OF_ASC_NODE":69.8544,"ARG_OF_PERICENTER":84.8533,"MEAN_ANOMALY":275.2812,"EPHEMERIS_TYPE":0,"CLASSIFICATION_TYPE":"U","NORAD_CAT_ID":51627,"ELEMENT_SET_NO":999,"REV_AT_EPOCH":17135,"BSTAR":4.0029e-5,"MEAN_MOTION_DOT":2.8e-7,"MEAN_MOTION_DDOT":0},{"OBJECT_NAME":"ONEWEB-0425","OBJECT_ID":"2022-012G","EPOCH":"2025-07-30T09:55:22.918944","MEAN_MOTION":13.10372936,"ECCENTRICITY":0.000173,"INCLINATION":87.8804,"RA_OF_ASC_NODE":100.438,"ARG_OF_PERICENTER":87.9526,"MEAN_ANOMALY":272.1799,"EPHEMERIS_TYPE":0,"CLASSIFICATION_TYPE":"U","NORAD_CAT_ID":51628,"ELEMENT_SET_NO":999,"REV_AT_EPOCH":16718,"BSTAR":-0.0020717,"MEAN_MOTION_DOT":-7.1e-6,"MEAN_MOTION_DDOT":0},{"OBJECT_NAME":"ONEWEB-0428","OBJECT_ID":"2022-012H","EPOCH":"2025-07-30T14:56:35.046240","MEAN_MOTION":13.10369613,"ECCENTRICITY":0.0001944,"INCLINATION":87.8798,"RA_OF_ASC_NODE":100.418,"ARG_OF_PERICENTER":73.2235,"MEAN_ANOMALY":286.9106,"EPHEMERIS_TYPE":0,"CLASSIFICATION_TYPE":"U","NORAD_CAT_ID":51629,"ELEMENT_SET_NO":999,"REV_AT_EPOCH":16717,"BSTAR":4.1463e-5,"MEAN_MOTION_DOT":2.7e-7,"MEAN_MOTION_DDOT":0},{"OBJECT_NAME":"ONEWEB-0431","OBJECT_ID":"2022-012J","EPOCH":"2025-07-30T10:33:27.076608","MEAN_MOTION":13.10376492,"ECCENTRICITY":0.0002021,"INCLINATION":87.8806,"RA_OF_ASC_NODE":100.4244,"ARG_OF_PERICENTER":60.1653,"MEAN_ANOMALY":299.9675,"EPHEMERIS_TYPE":0,"CLASSIFICATION_TYPE":"U","NORAD_CAT_ID":51630,"ELEMENT_SET_NO":999,"REV_AT_EPOCH":16720,"BSTAR":0.0012308,"MEAN_MOTION_DOT":4.42e-6,"MEAN_MOTION_DDOT":0},{"OBJECT_NAME":"ONEWEB-0434","OBJECT_ID":"2022-012K","EPOCH":"2025-07-30T17:19:58.685664","MEAN_MOTION":13.10373236,"ECCENTRICITY":0.0001784,"INCLINATION":87.8805,"RA_OF_ASC_NODE":100.411,"ARG_OF_PERICENTER":98.5002,"MEAN_ANOMALY":261.6328,"EPHEMERIS_TYPE":0,"CLASSIFICATION_TYPE":"U","NORAD_CAT_ID":51631,"ELEMENT_SET_NO":999,"REV_AT_EPOCH":16851,"BSTAR":-0.0018543,"MEAN_MOTION_DOT":-6.35e-6,"MEAN_MOTION_DDOT":0},{"OBJECT_NAME":"ONEWEB-0435","OBJECT_ID":"2022-012L","EPOCH":"2025-07-30T04:42:15.090336","MEAN_MOTION":13.10376771,"ECCENTRICITY":0.0002212,"INCLINATION":87.8806,"RA_OF_ASC_NODE":100.5087,"ARG_OF_PERICENTER":73.4042,"MEAN_ANOMALY":286.7328,"EPHEMERIS_TYPE":0,"CLASSIFICATION_TYPE":"U","NORAD_CAT_ID":51632,"ELEMENT_SET_NO":999,"REV_AT_EPOCH":16714,"BSTAR":-0.00087982,"MEAN_MOTION_DOT":-2.94e-6,"MEAN_MOTION_DDOT":0},{"OBJECT_NAME":"ONEWEB-0436","OBJECT_ID":"2022-012M","EPOCH":"2025-07-30T14:56:26.259360","MEAN_MOTION":13.1764778,"ECCENTRICITY":0.0001927,"INCLINATION":87.903,"RA_OF_ASC_NODE":69.8415,"ARG_OF_PERICENTER":77.682,"MEAN_ANOMALY":282.4527,"EPHEMERIS_TYPE":0,"CLASSIFICATION_TYPE":"U","NORAD_CAT_ID":51633,"ELEMENT_SET_NO":999,"REV_AT_EPOCH":17133,"BSTAR":-1.1151e-5,"MEAN_MOTION_DOT":9.0e-8,"MEAN_MOTION_DDOT":0},{"OBJECT_NAME":"ONEWEB-0438","OBJECT_ID":"2022-012N","EPOCH":"2025-07-30T17:08:01.835232","MEAN_MOTION":13.10371622,"ECCENTRICITY":0.0001759,"INCLINATION":87.8799,"RA_OF_ASC_NODE":100.4059,"ARG_OF_PERICENTER":82.6388,"MEAN_ANOMALY":277.4939,"EPHEMERIS_TYPE":0,"CLASSIFICATION_TYPE":"U","NORAD_CAT_ID":51634,"ELEMENT_SET_NO":999,"REV_AT_EPOCH":16853,"BSTAR":-0.0016615,"MEAN_MOTION_DOT":-5.67e-6,"MEAN_MOTION_DDOT":0},{"OBJECT_NAME":"ONEWEB-0439","OBJECT_ID":"2022-012P","EPOCH":"2025-07-30T09:52:59.269440","MEAN_MOTION":13.10372613,"ECCENTRICITY":0.0001871,"INCLINATION":87.8807,"RA_OF_ASC_NODE":100.4545,"ARG_OF_PERICENTER":77.8857,"MEAN_ANOMALY":282.248,"EPHEMERIS_TYPE":0,"CLASSIFICATION_TYPE":"U","NORAD_CAT_ID":51635,"ELEMENT_SET_NO":999,"REV_AT_EPOCH":16718,"BSTAR":-0.0016869,"MEAN_MOTION_DOT":-5.76e-6,"MEAN_MOTION_DDOT":0},{"OBJECT_NAME":"ONEWEB-0442","OBJECT_ID":"2022-012Q","EPOCH":"2025-07-30T14:45:31.044960","MEAN_MOTION":13.17649807,"ECCENTRICITY":0.0001336,"INCLINATION":87.9037,"RA_OF_ASC_NODE":69.8964,"ARG_OF_PERICENTER":101.3838,"MEAN_ANOMALY":258.7444,"EPHEMERIS_TYPE":0,"CLASSIFICATION_TYPE":"U","NORAD_CAT_ID":51636,"ELEMENT_SET_NO":999,"REV_AT_EPOCH":17132,"BSTAR":1.6186e-5,"MEAN_MOTION_DOT":1.9e-7,"MEAN_MOTION_DDOT":0},{"OBJECT_NAME":"ONEWEB-0443","OBJECT_ID":"2022-012R","EPOCH":"2025-07-30T13:24:06.444288","MEAN_MOTION":13.17650084,"ECCENTRICITY":0.0001927,"INCLINATION":87.903,"RA_OF_ASC_NODE":69.9174,"ARG_OF_PERICENTER":92.7238,"MEAN_ANOMALY":267.4114,"EPHEMERIS_TYPE":0,"CLASSIFICATION_TYPE":"U","NORAD_CAT_ID":51637,"ELEMENT_SET_NO":999,"REV_AT_EPOCH":17136,"BSTAR":5.9756e-5,"MEAN_MOTION_DOT":3.6e-7,"MEAN_MOTION_DDOT":0},{"OBJECT_NAME":"ONEWEB-0444","OBJECT_ID":"2022-012S","EPOCH":"2025-07-30T16:58:28.827840","MEAN_MOTION":13.10370178,"ECCENTRICITY":0.000197,"INCLINATION":87.8797,"RA_OF_ASC_NODE":100.3967,"ARG_OF_PERICENTER":78.5752,"MEAN_ANOMALY":281.5597,"EPHEMERIS_TYPE":0,"CLASSIFICATION_TYPE":"U","NORAD_CAT_ID":51638,"ELEMENT_SET_NO":999,"REV_AT_EPOCH":16852,"BSTAR":-0.0011728,"MEAN_MOTION_DOT":-3.97e-6,"MEAN_MOTION_DDOT":0},{"OBJECT_NAME":"ONEWEB-0445","OBJECT_ID":"2022-012T","EPOCH":"2025-07-30T10:09:42.631776","MEAN_MOTION":13.10374129,"ECCENTRICITY":0.0001639,"INCLINATION":87.8799,"RA_OF_ASC_NODE":100.4063,"ARG_OF_PERICENTER":76.207,"MEAN_ANOMALY":283.9239,"EPHEMERIS_TYPE":0,"CLASSIFICATION_TYPE":"U","NORAD_CAT_ID":51639,"ELEMENT_SET_NO":999,"REV_AT_EPOCH":16720,"BSTAR":-0.0012683,"MEAN_MOTION_DOT":-4.3e-6,"MEAN_MOTION_DDOT":0}]
